[{"OBJECT_NAME":"SAUDISAT 5A","OBJECT_ID":"2018-102A","EPOCH":"2026-03-09T23:40:00.596928","MEAN_MOTION":15.26941021,"ECCENTRICITY":0.00113651,"INCLINATION":97.3185,"RA_OF_ASC_NODE":132.4981,"ARG_OF_PERICENTER":121.7113,"MEAN_ANOMALY":238.5235,"EPHEMERIS_TYPE":0,"CLASSIFICATION_TYPE":"U","NORAD_CAT_ID":43831,"ELEMENT_SET_NO":999,"REV_AT_EPOCH":40053,"BSTAR":0.00030305233,"MEAN_MOTION_DOT":7.96e-5,"MEAN_MOTION_DDOT":0},{"OBJECT_NAME":"STARLINK-34549","OBJECT_ID":"2025-161C","EPOCH":"2026-03-09T21:06:14.739264","MEAN_MOTION":15.30218572,"ECCENTRICITY":0.00031564,"INCLINATION":53.1605,"RA_OF_ASC_NODE":292.9816,"ARG_OF_PERICENTER":173.4976,"MEAN_ANOMALY":186.6067,"EPHEMERIS_TYPE":0,"CLASSIFICATION_TYPE":"U","NORAD_CAT_ID":65017,"ELEMENT_SET_NO":999,"REV_AT_EPOCH":3547,"BSTAR":0.0010048506,"MEAN_MOTION_DOT":0.00029539,"MEAN_MOTION_DDOT":0}]
